STARS (KUKAI)           
1 33498U 09002G   26068.71826512  .00006351  00000+0  58664-3 0  9998
2 33498  98.1461  12.0831 0009772 130.4363 229.7710 14.94938540923614
STARLINK-5539           
1 55747U 23028G   26068.85733490  .00000320  00000+0  34605-4 0  9990
2 55747  69.9992 244.0974 0002582 271.1358  88.9505 14.98332394166068
